ONEWEB-0512             
1 54130U 22138T   25131.25187094  .00000056  00000+0  10668-3 0  9991
2 54130  87.9259  24.8886 0001551  68.6582 291.4716 13.19726996123793
ONEWEB-0513             
1 54131U 22138U   25131.19854307  .00000112  00000+0  24492-3 0  9996
2 54131  87.9257  24.8748 0001574  67.4627 292.6673 13.20260551123675
ONEWEB-0514             
1 54132U 22138V   25131.41929585  .00000127  00000+0  28461-3 0  9999
2 54132  87.9251  24.8249 0001893  79.3208 280.8138 13.19728133123833
ONEWEB-0515             
1 54133U 22138W   25131.91089243  .00000027  00000+0  33302-4 0  9993
2 54133  87.9288 354.3196 0002372 105.5439 254.5956 13.20769496127207
ONEWEB-0516             
1 54134U 22138X   25131.69729035  .00000035  00000+0  56181-4 0  9998
2 54134  87.9258  24.8035 0001705  81.7889 278.3437 13.19727859124748
ONEWEB-0517             
1 54135U 22138Y   25131.44930587  .00000044  00000+0  77714-4 0  9993
2 54135  87.9252  24.8146 0002045  72.4060 287.7296 13.19727885123848
ONEWEB-0518             
1 54136U 22138Z   25131.24081826 -.00000029  00000+0 -10451-3 0  9994
2 54136  87.9259  24.8897 0001680  77.6287 282.5034 13.19726174123811
ONEWEB-0519             
1 54137U 22138AA  25131.19027048  .00000160  00000+0  36825-3 0  9992
2 54137  87.9250  24.8587 0001945  73.1498 286.9847 13.19727519123812
